[{"OBJECT_NAME":"ONEWEB-0243","OBJECT_ID":"2021-045H","EPOCH":"2026-02-10T03:00:19.732032","MEAN_MOTION":13.15549923,"ECCENTRICITY":0.0001106,"INCLINATION":87.8977,"RA_OF_ASC_NODE":284.592,"ARG_OF_PERICENTER":83.3773,"MEAN_ANOMALY":276.7483,"EPHEMERIS_TYPE":0,"CLASSIFICATION_TYPE":"U","NORAD_CAT_ID":48774,"ELEMENT_SET_NO":999,"REV_AT_EPOCH":22765,"BSTAR":0.00064022,"MEAN_MOTION_DOT":2.54e-6,"MEAN_MOTION_DDOT":0},{"OBJECT_NAME":"ONEWEB-0222","OBJECT_ID":"2021-045J","EPOCH":"2026-02-10T02:36:21.936672","MEAN_MOTION":13.15549563,"ECCENTRICITY":0.0001419,"INCLINATION":87.8982,"RA_OF_ASC_NODE":284.553,"ARG_OF_PERICENTER":89.4729,"MEAN_ANOMALY":270.6564,"EPHEMERIS_TYPE":0,"CLASSIFICATION_TYPE":"U","NORAD_CAT_ID":48775,"ELEMENT_SET_NO":999,"REV_AT_EPOCH":22769,"BSTAR":0.0001861,"MEAN_MOTION_DOT":8.3e-7,"MEAN_MOTION_DDOT":0},{"OBJECT_NAME":"ONEWEB-0244","OBJECT_ID":"2021-045K","EPOCH":"2026-02-10T03:14:01.713984","MEAN_MOTION":13.15549101,"ECCENTRICITY":0.0001359,"INCLINATION":87.899,"RA_OF_ASC_NODE":284.5377,"ARG_OF_PERICENTER":83.9682,"MEAN_ANOMALY":276.1603,"EPHEMERIS_TYPE":0,"CLASSIFICATION_TYPE":"U","NORAD_CAT_ID":48776,"ELEMENT_SET_NO":999,"REV_AT_EPOCH":22826,"BSTAR":0.00031177,"MEAN_MOTION_DOT":1.3e-6,"MEAN_MOTION_DDOT":0},{"OBJECT_NAME":"ONEWEB-0247","OBJECT_ID":"2021-045L","EPOCH":"2026-02-10T03:09:26.517024","MEAN_MOTION":13.15550671,"ECCENTRICITY":6.46e-5,"INCLINATION":87.8971,"RA_OF_ASC_NODE":284.5855,"ARG_OF_PERICENTER":89.1992,"MEAN_ANOMALY":270.9212,"EPHEMERIS_TYPE":0,"CLASSIFICATION_TYPE":"U","NORAD_CAT_ID":48777,"ELEMENT_SET_NO":999,"REV_AT_EPOCH":22770,"BSTAR":0.0004664,"MEAN_MOTION_DOT":1.88e-6,"MEAN_MOTION_DDOT":0},{"OBJECT_NAME":"ONEWEB-0245","OBJECT_ID":"2021-045M","EPOCH":"2026-02-10T03:02:37.235040","MEAN_MOTION":13.15549262,"ECCENTRICITY":0.0001537,"INCLINATION":87.8983,"RA_OF_ASC_NODE":284.5551,"ARG_OF_PERICENTER":91.2254,"MEAN_ANOMALY":268.9053,"EPHEMERIS_TYPE":0,"CLASSIFICATION_TYPE":"U","NORAD_CAT_ID":48778,"ELEMENT_SET_NO":999,"REV_AT_EPOCH":22767,"BSTAR":0.00039956,"MEAN_MOTION_DOT":1.63e-6,"MEAN_MOTION_DDOT":0},{"OBJECT_NAME":"ONEWEB-0229","OBJECT_ID":"2021-045N","EPOCH":"2026-02-10T02:55:46.238016","MEAN_MOTION":13.15549538,"ECCENTRICITY":0.0001368,"INCLINATION":87.8987,"RA_OF_ASC_NODE":284.5538,"ARG_OF_PERICENTER":82.6443,"MEAN_ANOMALY":277.4842,"EPHEMERIS_TYPE":0,"CLASSIFICATION_TYPE":"U","NORAD_CAT_ID":48779,"ELEMENT_SET_NO":999,"REV_AT_EPOCH":22770,"BSTAR":0.00068549,"MEAN_MOTION_DOT":2.71e-6,"MEAN_MOTION_DDOT":0},{"OBJECT_NAME":"ONEWEB-0228","OBJECT_ID":"2021-045P","EPOCH":"2026-02-10T03:43:52.957056","MEAN_MOTION":13.15548986,"ECCENTRICITY":0.000144,"INCLINATION":87.899,"RA_OF_ASC_NODE":284.5341,"ARG_OF_PERICENTER":84.043,"MEAN_ANOMALY":276.0865,"EPHEMERIS_TYPE":0,"CLASSIFICATION_TYPE":"U","NORAD_CAT_ID":48780,"ELEMENT_SET_NO":999,"REV_AT_EPOCH":22762,"BSTAR":-0.00030061,"MEAN_MOTION_DOT":-1.0e-6,"MEAN_MOTION_DDOT":0},{"OBJECT_NAME":"ONEWEB-0232","OBJECT_ID":"2021-045Q","EPOCH":"2026-02-10T03:07:10.845696","MEAN_MOTION":13.15549656,"ECCENTRICITY":0.0001477,"INCLINATION":87.8995,"RA_OF_ASC_NODE":284.5363,"ARG_OF_PERICENTER":81.3257,"MEAN_ANOMALY":278.804,"EPHEMERIS_TYPE":0,"CLASSIFICATION_TYPE":"U","NORAD_CAT_ID":48781,"ELEMENT_SET_NO":999,"REV_AT_EPOCH":22794,"BSTAR":0.00039725,"MEAN_MOTION_DOT":1.62e-6,"MEAN_MOTION_DDOT":0},{"OBJECT_NAME":"ONEWEB-0231","OBJECT_ID":"2021-045R","EPOCH":"2026-02-09T17:27:38.303424","MEAN_MOTION":13.15549385,"ECCENTRICITY":0.00013393,"INCLINATION":87.8974,"RA_OF_ASC_NODE":284.6482,"ARG_OF_PERICENTER":89.2761,"MEAN_ANOMALY":270.8523,"EPHEMERIS_TYPE":0,"CLASSIFICATION_TYPE":"U","NORAD_CAT_ID":48782,"ELEMENT_SET_NO":999,"REV_AT_EPOCH":22758,"BSTAR":0.00022376287,"MEAN_MOTION_DOT":9.7e-7,"MEAN_MOTION_DDOT":0},{"OBJECT_NAME":"ONEWEB-0234","OBJECT_ID":"2021-045S","EPOCH":"2026-02-10T03:29:48.676992","MEAN_MOTION":13.15548747,"ECCENTRICITY":0.000227,"INCLINATION":87.8979,"RA_OF_ASC_NODE":284.5416,"ARG_OF_PERICENTER":92.4573,"MEAN_ANOMALY":267.6817,"EPHEMERIS_TYPE":0,"CLASSIFICATION_TYPE":"U","NORAD_CAT_ID":48783,"ELEMENT_SET_NO":999,"REV_AT_EPOCH":22777,"BSTAR":0.00015545,"MEAN_MOTION_DOT":7.1e-7,"MEAN_MOTION_DDOT":0},{"OBJECT_NAME":"ONEWEB-0238","OBJECT_ID":"2021-045T","EPOCH":"2026-02-10T03:30:11.472768","MEAN_MOTION":13.15548831,"ECCENTRICITY":0.0001914,"INCLINATION":87.8985,"RA_OF_ASC_NODE":284.535,"ARG_OF_PERICENTER":87.778,"MEAN_ANOMALY":272.3569,"EPHEMERIS_TYPE":0,"CLASSIFICATION_TYPE":"U","NORAD_CAT_ID":48784,"ELEMENT_SET_NO":999,"REV_AT_EPOCH":22767,"BSTAR":1.7474e-5,"MEAN_MOTION_DOT":1.9e-7,"MEAN_MOTION_DDOT":0},{"OBJECT_NAME":"ONEWEB-0240","OBJECT_ID":"2021-045U","EPOCH":"2026-02-10T02:11:15.652896","MEAN_MOTION":13.15546297,"ECCENTRICITY":0.000146,"INCLINATION":87.8985,"RA_OF_ASC_NODE":284.5455,"ARG_OF_PERICENTER":94.6127,"MEAN_ANOMALY":265.517,"EPHEMERIS_TYPE":0,"CLASSIFICATION_TYPE":"U","NORAD_CAT_ID":48785,"ELEMENT_SET_NO":999,"REV_AT_EPOCH":22769,"BSTAR":-0.00017642,"MEAN_MOTION_DOT":-5.4e-7,"MEAN_MOTION_DDOT":0},{"OBJECT_NAME":"ONEWEB-0246","OBJECT_ID":"2021-045V","EPOCH":"2026-02-10T02:03:17.732160","MEAN_MOTION":13.15548931,"ECCENTRICITY":0.0001431,"INCLINATION":87.8984,"RA_OF_ASC_NODE":284.5559,"ARG_OF_PERICENTER":77.4857,"MEAN_ANOMALY":282.6433,"EPHEMERIS_TYPE":0,"CLASSIFICATION_TYPE":"U","NORAD_CAT_ID":48786,"ELEMENT_SET_NO":999,"REV_AT_EPOCH":22756,"BSTAR":-0.00027604,"MEAN_MOTION_DOT":-9.1e-7,"MEAN_MOTION_DDOT":0},{"OBJECT_NAME":"ONEWEB-0210","OBJECT_ID":"2021-045W","EPOCH":"2026-02-10T03:16:17.260896","MEAN_MOTION":13.15550833,"ECCENTRICITY":7.08e-5,"INCLINATION":87.8986,"RA_OF_ASC_NODE":284.5431,"ARG_OF_PERICENTER":62.1175,"MEAN_ANOMALY":298.0027,"EPHEMERIS_TYPE":0,"CLASSIFICATION_TYPE":"U","NORAD_CAT_ID":48787,"ELEMENT_SET_NO":999,"REV_AT_EPOCH":22761,"BSTAR":-0.0012102,"MEAN_MOTION_DOT":-4.43e-6,"MEAN_MOTION_DDOT":0},{"OBJECT_NAME":"ONEWEB-0214","OBJECT_ID":"2021-045X","EPOCH":"2026-02-10T03:28:50.995488","MEAN_MOTION":13.15549328,"ECCENTRICITY":0.0001198,"INCLINATION":87.8992,"RA_OF_ASC_NODE":284.5367,"ARG_OF_PERICENTER":74.7693,"MEAN_ANOMALY":285.3569,"EPHEMERIS_TYPE":0,"CLASSIFICATION_TYPE":"U","NORAD_CAT_ID":48788,"ELEMENT_SET_NO":999,"REV_AT_EPOCH":22758,"BSTAR":6.6044e-5,"MEAN_MOTION_DOT":3.8e-7,"MEAN_MOTION_DDOT":0},{"OBJECT_NAME":"ONEWEB-0221","OBJECT_ID":"2021-045Y","EPOCH":"2026-02-10T03:39:07.504416","MEAN_MOTION":13.15549239,"ECCENTRICITY":0.0001366,"INCLINATION":87.8986,"RA_OF_ASC_NODE":284.5464,"ARG_OF_PERICENTER":87.3278,"MEAN_ANOMALY":272.8009,"EPHEMERIS_TYPE":0,"CLASSIFICATION_TYPE":"U","NORAD_CAT_ID":48789,"ELEMENT_SET_NO":999,"REV_AT_EPOCH":22767,"BSTAR":-0.00011189,"MEAN_MOTION_DOT":-2.9e-7,"MEAN_MOTION_DDOT":0},{"OBJECT_NAME":"ONEWEB-0213","OBJECT_ID":"2021-045Z","EPOCH":"2026-02-10T03:23:08.484288","MEAN_MOTION":13.15550285,"ECCENTRICITY":0.0001196,"INCLINATION":87.8985,"RA_OF_ASC_NODE":284.5523,"ARG_OF_PERICENTER":78.0623,"MEAN_ANOMALY":282.0641,"EPHEMERIS_TYPE":0,"CLASSIFICATION_TYPE":"U","NORAD_CAT_ID":48790,"ELEMENT_SET_NO":999,"REV_AT_EPOCH":22773,"BSTAR":-1.0136e-5,"MEAN_MOTION_DOT":9.0e-8,"MEAN_MOTION_DDOT":0}]
