ONEWEB-0243             
1 48774U 21045H   26041.12522838  .00000254  00000+0  64022-3 0  9993
2 48774  87.8977 284.5920 0001106  83.3773 276.7483 13.15549923227658
ONEWEB-0222             
1 48775U 21045J   26041.10858723  .00000083  00000+0  18610-3 0  9999
2 48775  87.8982 284.5530 0001419  89.4729 270.6564 13.15549563227694
ONEWEB-0244             
1 48776U 21045K   26041.13474206  .00000130  00000+0  31177-3 0  9999
2 48776  87.8990 284.5377 0001359  83.9682 276.1603 13.15549101228260
ONEWEB-0247             
1 48777U 21045L   26041.13155691  .00000188  00000+0  46640-3 0  9998
2 48777  87.8971 284.5855 0000646  89.1992 270.9212 13.15550671227701
ONEWEB-0245             
1 48778U 21045M   26041.12681985  .00000163  00000+0  39956-3 0  9993
2 48778  87.8983 284.5551 0001537  91.2254 268.9053 13.15549262227673
ONEWEB-0229             
1 48779U 21045N   26041.12206294  .00000271  00000+0  68549-3 0  9990
2 48779  87.8987 284.5538 0001368  82.6443 277.4842 13.15549538227700
ONEWEB-0228             
1 48780U 21045P   26041.15547404 -.00000100  00000+0 -30061-3 0  9997
2 48780  87.8990 284.5341 0001440  84.0430 276.0865 13.15548986227628
ONEWEB-0232             
1 48781U 21045Q   26041.12998664  .00000162  00000+0  39725-3 0  9995
2 48781  87.8995 284.5363 0001477  81.3257 278.8040 13.15549656227940
ONEWEB-0231             
1 48782U 21045R   26040.72752666  .00000097  00000+0  22376-3 0  9992
2 48782  87.8974 284.6482 0001339  89.2761 270.8523 13.15549385227582
ONEWEB-0234             
1 48783U 21045S   26041.14570228  .00000071  00000+0  15545-3 0  9994
2 48783  87.8979 284.5416 0002270  92.4573 267.6817 13.15548747227778
ONEWEB-0238             
1 48784U 21045T   26041.14596612  .00000019  00000+0  17474-4 0  9996
2 48784  87.8985 284.5350 0001914  87.7780 272.3569 13.15548831227674
ONEWEB-0240             
1 48785U 21045U   26041.09115339 -.00000054  00000+0 -17642-3 0  9991
2 48785  87.8985 284.5455 0001460  94.6127 265.5170 13.15546297227697
ONEWEB-0246             
1 48786U 21045V   26041.08562190 -.00000091  00000+0 -27604-3 0  9992
2 48786  87.8984 284.5559 0001431  77.4857 282.6433 13.15548931227564
ONEWEB-0210             
1 48787U 21045W   26041.13631089 -.00000443  00000+0 -12102-2 0  9990
2 48787  87.8986 284.5431 0000708  62.1175 298.0027 13.15550833227616
ONEWEB-0214             
1 48788U 21045X   26041.14503467  .00000038  00000+0  66044-4 0  9994
2 48788  87.8992 284.5367 0001198  74.7693 285.3569 13.15549328227583
ONEWEB-0221             
1 48789U 21045Y   26041.15217019 -.00000029  00000+0 -11189-3 0  9992
2 48789  87.8986 284.5464 0001366  87.3278 272.8009 13.15549239227672
ONEWEB-0213             
1 48790U 21045Z   26041.14107042  .00000009  00000+0 -10136-4 0  9996
2 48790  87.8985 284.5523 0001196  78.0623 282.0641 13.15550285227736
